JILIN-1 08              
1 43160U 18008F   26196.79738036  .00003266  00000+0  10153-3 0  9997
2 43160  97.1801 215.2544 0005245 350.3628   9.7513 15.34014016469333
S-NET D                 
1 43186U 18014G   26196.63103245  .00002654  00000+0  13807-3 0  9992
2 43186  97.5333 101.2453 0006209 283.0320  77.0220 15.16920297463075
S-NET B                 
1 43187U 18014H   26196.64304466  .00002463  00000+0  12848-3 0  9994
2 43187  97.5338 101.2446 0006841 276.7896  83.2558 15.16889958463073
S-NET A                 
1 43188U 18014J   26196.62975302  .00002717  00000+0  14119-3 0  9991
2 43188  97.5348 101.4458 0006705 277.8489  82.1983 15.16928771463076
S-NET C                 
1 43189U 18014K   26196.64707332  .00002432  00000+0  12688-3 0  9993
2 43189  97.5366 101.5419 0008104 268.4533  91.5771 15.16881245461628
PAZ                     
1 43215U 18020A   26196.82558142  .00000950  00000+0  48432-4 0  9993
2 43215  97.4456 203.8045 0001704  87.7319 272.4111 15.19144518465351
GOES 17                 
1 43226U 18022A   26196.61065404 -.00000193  00000+0  00000+0 0  9992
2 43226   1.0080  85.2498 0000551  79.8372 258.7068  1.00270998 30703
LKW-4                   
1 43236U 18025A   26196.75309668  .00031818  00000+0  33066-3 0  9993
2 43236  97.6349   9.9182 0003370 183.1486 176.9752 15.64561268464499
ZHUHAI-1 OVS-02         
1 43440U 18040B   26196.83621271  .00003792  00000+0  15283-3 0  9994
2 43440  97.0379 212.3721 0005098 134.0034 226.1626 15.25382068457086
ZHUHAI-1 OHS-02         
1 43441U 18040C   26196.87049772  .00004248  00000+0  16621-3 0  9993
2 43441  97.0358 219.3724 0011251 123.2232 237.0088 15.26273181118658
GAOFEN-6                
1 43484U 18048A   26196.87420839  .00000343  00000+0  56952-4 0  9999
2 43484  98.0962 259.5774 0012128  79.5863 280.6712 14.76383900437629
LUOJIA-1 01             
1 43485U 18048B   26196.83363556  .00001076  00000+0  12494-3 0  9994
2 43485  97.8101 274.5613 0009715  35.4744 324.7116 14.87381782438478
PAKTES 1A               
1 43529U 18056A   26196.83862752  .00001543  00000+0  13155-3 0  9998
2 43529  98.1286 354.5476 0019824  18.0438 342.1483 14.99207973436213
PRSS-1                  
1 43530U 18056B   26196.81716794  .00000641  00000+0  87205-4 0  9998
2 43530  97.7812 263.8926 0001280  85.6742 274.4618 14.82029853432676
HAIYANG-1C              
1 43609U 18068A   26196.84913043 -.00000142  00000+0 -35078-4 0  9996
2 43609  98.5187 268.7411 0011161  16.4610 343.6935 14.34186065411196
SSTL S1-4               
1 43618U 18071A   26196.84592488  .00000332  00000+0  34315-4 0  9998
2 43618  97.4986  67.2621 0002254  97.3367 262.8111 14.96203249427227
HAIYANG-2B              
1 43655U 18081A   26196.88833586 -.00000129  00000+0 -83157-4 0  9995
2 43655  99.3283 205.2116 0000943 147.1094 213.0116 13.79305991388884
CFOSAT                  
1 43662U 18083A   26196.86330272  .00001703  00000+0  90674-4 0  9996
2 43662  97.3616 200.5522 0001834  75.7102 284.4335 15.16538045426783
TEN-KOH                 
1 43677U 18084G   26196.48470418  .00001662  00000+0  12824-3 0  9992
2 43677  98.0759  30.0384 0009862  29.5308 330.6472 15.03047312420419
DIWATA-2B               
1 43678U 18084H   26196.84444690  .00001091  00000+0  91544-4 0  9999
2 43678  98.1211  34.3078 0012801  82.4503 277.8174 15.00564951420515
STARS-AO                
1 43679U 18084J   26196.56482620  .00003185  00000+0  16340-3 0  9990
2 43679  98.0471  52.2873 0003558  79.9682 280.1951 15.17347368421771
AUTCUBE 2               
1 43681U 18084K   26196.52269246  .00002330  00000+0  14668-3 0  9998
2 43681  98.0688  44.2005 0007795 313.4349  46.6230 15.10266986421207
METOP-C                 
1 43689U 18087A   26196.57486992  .00000053  00000+0  44045-4 0  9996
2 43689  98.6630 255.6574 0002216  93.2289 266.9142 14.21519167398863
ES'HAIL 2               
1 43700U 18090A   26196.77604286  .00000134  00000+0  00000+0 0  9992
2 43700   0.0172  48.3163 0002230 110.7315  79.7199  1.00271226 27963
MOHAMMED VI-B           
1 43717U 18095A   26196.83177637  .00000381  00000+0  61149-4 0  9997
2 43717  97.9553 268.7603 0001754  92.6673 267.4738 14.77081885412412
HYSIS                   
1 43719U 18096A   26196.83607475  .00000629  00000+0  92883-4 0  9992
2 43719  97.9832 263.3575 0001837  82.4132 277.7288 14.78671680411650
COSMOS 2530 (RODNIK-S *)
1 43751U 18097A   26196.87277781  .00000115  00000+0  76012-3 0  9991
2 43751  82.5115 204.4774 0018955 337.4661  22.5584 12.42882368345855
COSMOS 2531 (RODNIK-S *)
1 43752U 18097B   26196.81384818  .00000156  00000+0  10531-2 0  9994
2 43752  82.5160 205.5821 0016574 357.6736   2.4264 12.42913794345864
COSMOS 2532 (RODNIK-S *)
1 43753U 18097C   26196.84218010  .00000185  00000+0  12605-2 0  9994
2 43753  82.5105 204.3375 0018007 359.4201   0.6855 12.42911350345834
MINXSS-2                
1 43758U 18099A   26196.73011947  .00026112  00000+0  48532-3 0  9996
2 43758  97.4529 273.8898 0008560 158.8833 201.2773 15.48848170418545
