OBJECT_NAME,OBJECT_ID,EPOCH,MEAN_MOTION,ECCENTRICITY,INCLINATION,RA_OF_ASC_NODE,ARG_OF_PERICENTER,MEAN_ANOMALY,EPHEMERIS_TYPE,CLASSIFICATION_TYPE,NORAD_CAT_ID,ELEMENT_SET_NO,REV_AT_EPOCH,BSTAR,MEAN_MOTION_DOT,MEAN_MOTION_DDOT
JILIN-1 08,2018-008F,2026-07-15T19:08:13.663104,15.34014016,.0005245,97.1801,215.2544,350.3628,9.7513,0,U,43160,999,46933,.10153E-3,.3266E-4,0
S-NET D,2018-014G,2026-07-15T15:08:41.203680,15.16920297,.0006209,97.5333,101.2453,283.0320,77.0220,0,U,43186,999,46307,.13807E-3,.2654E-4,0
S-NET B,2018-014H,2026-07-15T15:25:59.058624,15.16889958,.0006841,97.5338,101.2446,276.7896,83.2558,0,U,43187,999,46307,.12848E-3,.2463E-4,0
S-NET A,2018-014J,2026-07-15T15:06:50.660928,15.16928771,.0006705,97.5348,101.4458,277.8489,82.1983,0,U,43188,999,46307,.14119E-3,.2717E-4,0
S-NET C,2018-014K,2026-07-15T15:31:47.134848,15.16881245,.0008104,97.5366,101.5419,268.4533,91.5771,0,U,43189,999,46162,.12688E-3,.2432E-4,0
PAZ,2018-020A,2026-07-15T19:48:50.234688,15.19144518,.0001704,97.4456,203.8045,87.7319,272.4111,0,U,43215,999,46535,.48432E-4,.95E-5,0
GOES 17,2018-022A,2026-07-15T14:39:20.509056,1.00270998,.0000551,1.0080,85.2498,79.8372,258.7068,0,U,43226,999,3070,0,-.193E-5,0
LKW-4,2018-025A,2026-07-15T18:04:27.553152,15.64561268,.000337,97.6349,9.9182,183.1486,176.9752,0,U,43236,999,46449,.33066E-3,.31818E-3,0
ZHUHAI-1 OVS-02,2018-040B,2026-07-15T20:04:08.778144,15.25382068,.0005098,97.0379,212.3721,134.0034,226.1626,0,U,43440,999,45708,.15283E-3,.3792E-4,0
ZHUHAI-1 OHS-02,2018-040C,2026-07-15T20:53:31.003008,15.26273181,.0011251,97.0358,219.3724,123.2232,237.0088,0,U,43441,999,11865,.16621E-3,.4248E-4,0
GAOFEN-6,2018-048A,2026-07-15T20:58:51.604896,14.76383900,.0012128,98.0962,259.5774,79.5863,280.6712,0,U,43484,999,43762,.56952E-4,.343E-5,0
LUOJIA-1 01,2018-048B,2026-07-15T20:00:26.112384,14.87381782,.0009715,97.8101,274.5613,35.4744,324.7116,0,U,43485,999,43847,.12494E-3,.1076E-4,0
PAKTES 1A,2018-056A,2026-07-15T20:07:37.417728,14.99207973,.0019824,98.1286,354.5476,18.0438,342.1483,0,U,43529,999,43621,.13155E-3,.1543E-4,0
PRSS-1,2018-056B,2026-07-15T19:36:43.310016,14.82029853,.000128,97.7812,263.8926,85.6742,274.4618,0,U,43530,999,43267,.87205E-4,.641E-5,0
HAIYANG-1C,2018-068A,2026-07-15T20:22:44.869152,14.34186065,.0011161,98.5187,268.7411,16.4610,343.6935,0,U,43609,999,41119,-.35078E-4,-.142E-5,0
SSTL S1-4,2018-071A,2026-07-15T20:18:07.909632,14.96203249,.0002254,97.4986,67.2621,97.3367,262.8111,0,U,43618,999,42722,.34315E-4,.332E-5,0
HAIYANG-2B,2018-081A,2026-07-15T21:19:12.218304,13.79305991,.0000943,99.3283,205.2116,147.1094,213.0116,0,U,43655,999,38888,-.83157E-4,-.129E-5,0
CFOSAT,2018-083A,2026-07-15T20:43:09.355008,15.16538045,.0001834,97.3616,200.5522,75.7102,284.4335,0,U,43662,999,42678,.90674E-4,.1703E-4,0
TEN-KOH,2018-084G,2026-07-15T11:37:58.441152,15.03047312,.00098621,98.0759,30.0384,29.5308,330.6472,0,U,43677,999,42041,.12823839E-3,.1662E-4,0
DIWATA-2B,2018-084H,2026-07-15T20:16:00.212160,15.00564951,.0012801,98.1211,34.3078,82.4503,277.8174,0,U,43678,999,42051,.91544E-4,.1091E-4,0
STARS-AO,2018-084J,2026-07-15T13:33:20.983680,15.17347368,.0003558,98.0471,52.2873,79.9682,280.1951,0,U,43679,999,42177,.1634E-3,.3185E-4,0
AUTCUBE 2,2018-084K,2026-07-15T12:32:40.628544,15.10266986,.00077959,98.0688,44.2005,313.4349,46.6230,0,U,43681,999,42120,.14668469E-3,.233E-4,0
METOP-C,2018-087A,2026-07-15T13:47:48.761088,14.21519167,.0002216,98.6630,255.6574,93.2289,266.9142,0,U,43689,999,39886,.44045E-4,.53E-6,0
ES'HAIL 2,2018-090A,2026-07-15T18:37:30.103104,1.00271226,.000223,0.0172,48.3163,110.7315,79.7199,0,U,43700,999,2796,0,.134E-5,0
MOHAMMED VI-B,2018-095A,2026-07-15T19:57:45.478368,14.77081885,.0001754,97.9553,268.7603,92.6673,267.4738,0,U,43717,999,41241,.61149E-4,.381E-5,0
HYSIS,2018-096A,2026-07-15T20:03:56.858400,14.78671680,.0001837,97.9832,263.3575,82.4132,277.7288,0,U,43719,999,41165,.92883E-4,.629E-5,0
COSMOS 2530 (RODNIK-S 16),2018-097A,2026-07-15T20:56:48.002784,12.42882368,.0018955,82.5115,204.4774,337.4661,22.5584,0,U,43751,999,34585,.76012E-3,.115E-5,0
COSMOS 2531 (RODNIK-S 17),2018-097B,2026-07-15T19:31:56.482752,12.42913794,.0016574,82.5160,205.5821,357.6736,2.4264,0,U,43752,999,34586,.10531E-2,.156E-5,0
COSMOS 2532 (RODNIK-S 18),2018-097C,2026-07-15T20:12:44.360640,12.42911350,.0018007,82.5105,204.3375,359.4201,0.6855,0,U,43753,999,34583,.12605E-2,.185E-5,0
MINXSS-2,2018-099A,2026-07-15T17:31:22.322208,15.48848170,.000856,97.4529,273.8898,158.8833,201.2773,0,U,43758,999,41854,.48532E-3,.26112E-3,0
